NORAD_CAT_ID,OBJECT_NAME,OBJECT_TYPE,EPOCH,MEAN_MOTION,ECCENTRICITY,INCLINATION,RA_OF_ASC_NODE,ARG_OF_PERICENTER,MEAN_ANOMALY,BSTAR,MEAN_MOTION_DOT,MEAN_MOTION_DDOT,TLE_LINE0,TLE_LINE1,TLE_LINE2,SEMIMAJOR_AXIS,PERIOD,APOGEE,PERIGEE,DECAYED
51752.0,STARLINK-3511,PAYLOAD,2022-08-04 14:00:01,15.08825691,0.00021,53.2165,83.8909,72.7251,86.8115,0.002058,0.00032605,0.0,0 STARLINK-3511,1 51752U 22016AQ  22216.58334491  .00032605  00000-0  20580-2 0  9994,2 51752  53.2165  83.8909 0002100  72.7251  86.8115 15.08825691 26583,6917.924,95.438,541.242,538.336,0.0
51752.0,STARLINK-3511,PAYLOAD,2022-08-04 22:00:00,15.08841757,0.0002207,53.2165,82.3963,67.6619,103.4676,-0.00042332,-7.020000000000001e-05,0.0,0 STARLINK-3511,1 51752U 22016AQ  22216.91667824 -.00007020  00000-0 -42332-3 0  9995,2 51752  53.2165  82.3963 0002207  67.6619 103.4676 15.08841757  1308,6917.875,95.437,541.2669999999998,538.2130000000002,0.0
51752.0,STARLINK-3511,PAYLOAD,2022-08-05 06:00:02,15.08872502,0.0002118,53.2165,80.8992,67.0005,115.7814,-0.0045846,-0.00072584,0.0,0 STARLINK-3511,1 51752U 22016AQ  22217.25002315 -.00072584  00000-0 -45846-2 0  9990,2 51752  53.2165  80.8992 0002118  67.0005 115.7814 15.08872502 26687,6917.781,95.435,541.111,538.181,0.0
51752.0,STARLINK-3511,PAYLOAD,2022-08-05 14:00:01,15.08814784,0.000204,53.2168,79.4017,72.453,121.9368,0.0019128,0.00030265,0.0,0 STARLINK-3511,1 51752U 22016AQ  22217.58335648  .00030265  00000-0  19128-2 0  9996,2 51752  53.2168  79.4017 0002040  72.4530 121.9368 15.08814784  1302,6917.956999999999,95.439,541.234,538.411,0.0
51752.0,STARLINK-3511,PAYLOAD,2022-08-05 22:00:00,15.08826893,0.0002165,53.217,77.9072,66.7109,139.1964,6.387399999999999e-05,7.28e-06,0.0,0 STARLINK-3511,1 51752U 22016AQ  22217.91667824  .00000728  00000-0  63874-4 0  9997,2 51752  53.2170  77.9072 0002165  66.7109 139.1964 15.08826893  1302,6917.92,95.438,541.283,538.288,0.0
51752.0,STARLINK-3511,PAYLOAD,2022-08-06 00:00:02,15.08812912,0.0002188,53.2172,77.5333,65.7992,233.0698,0.0022429999999999,0.00035564,0.0,0 STARLINK-3511,1 51752U 22016AQ  22218.00002315  .00035564  00000-0  22430-2 0  9993,2 51752  53.2172  77.5333 0002188  65.7992 233.0698 15.08812912 26799,6917.9630000000025,95.439,541.342,538.315,0.0
51752.0,STARLINK-3511,PAYLOAD,2022-08-06 12:59:21,15.088367800000002,0.0002043,53.2187,75.1027,68.8895,291.2315,4.5603e-05,4.38e-06,0.0,0 STARLINK-3511,1 51752U 22016AQ  22218.54121637  .00000438  00000-0  45603-4 0  9992,2 51752  53.2187  75.1027 0002043  68.8895 291.2315 15.08836780 26875,6917.89,95.438,541.169,538.342,0.0
51752.0,STARLINK-3511,PAYLOAD,2022-08-06 20:56:16,15.08843589,0.0002089,53.2186,73.6156,70.1473,289.9744,4.9045e-05,4.92e-06,0.0,0 STARLINK-3511,1 51752U 22016AQ  22218.87241221  .00000492  00000-0  49045-4 0  9994,2 51752  53.2186  73.6156 0002089  70.1473 289.9744 15.08843589 25816,6917.869000000002,95.437,541.18,538.289,0.0
51752.0,STARLINK-3511,PAYLOAD,2022-08-07 14:00:01,15.08823362,0.0002017,53.2181,70.4239,73.2231,190.6509,0.0015456,0.00024385,0.0,0 STARLINK-3511,1 51752U 22016AQ  22219.58334491  .00024385  00000-0  15456-2 0  9999,2 51752  53.2181  70.4239 0002017  73.2231 190.6509 15.08823362  1307,6917.931,95.439,541.192,538.401,0.0
51752.0,STARLINK-3511,PAYLOAD,2022-08-07 20:47:04,15.08832481,0.0002037,53.2186,69.1554,70.9015,289.2197,5.8247e-05,6.39e-06,0.0,0 STARLINK-3511,1 51752U 22016AQ  22219.86601865  .00000639  00000-0  58247-4 0  9995,2 51752  53.2186  69.1554 0002037  70.9015 289.2197 15.08832481 25961,6917.903,95.438,541.178,538.359,0.0
51752.0,STARLINK-3511,PAYLOAD,2022-08-08 12:40:54,15.088447899999998,0.0001991,53.2185,66.1814,69.8521,290.2685,8.1473e-05,1.009e-05,0.0,0 STARLINK-3511,1 51752U 22016AQ  22220.52841121  .00001009  00000-0  81473-4 0  9990,2 51752  53.2185  66.1814 0001991  69.8521 290.2685 15.08844790 27178,6917.866,95.437,541.1080000000002,538.3530000000002,0.0
51752.0,STARLINK-3511,PAYLOAD,2022-08-08 22:00:00,15.08848483,0.0002008,53.2183,64.4405,67.0409,243.2476,-0.00034772,-5.819e-05,0.0,0 STARLINK-3511,1 51752U 22016AQ  22220.91667824 -.00005819  00000-0 -34772-3 0  9993,2 51752  53.2183  64.4405 0002008  67.0409 243.2476 15.08848483  1304,6917.854,95.437,541.109,538.33,0.0
51752.0,STARLINK-3511,PAYLOAD,2022-08-09 14:00:01,15.08833468,0.0001715,53.2182,61.4462,74.1933,259.2836,0.00034459,5.199e-05,0.0,0 STARLINK-3511,1 51752U 22016AQ  22221.58334491  .00005199  00000-0  34459-3 0  9999,2 51752  53.2182  61.4462 0001715  74.1933 259.2836 15.08833468  1302,6917.9,95.438,540.952,538.5790000000002,0.0
51752.0,STARLINK-3511,PAYLOAD,2022-08-09 22:00:00,15.088107999999998,0.0001773,53.218,59.9516,66.0118,279.0562,-0.0002523,-4.298e-05,0.0,0 STARLINK-3511,1 51752U 22016AQ  22221.91667824 -.00004298  00000-0 -25230-3 0  9993,2 51752  53.2180  59.9516 0001773  66.0118 279.0562 15.08810800  1302,6917.97,95.439,541.061,538.6080000000002,0.0
51752.0,STARLINK-3511,PAYLOAD,2022-08-10 06:00:00,15.08822147,0.0001638,53.2176,58.45399999999999,69.0276,287.5993,-0.0013205,-0.00021232,0.0,0 STARLINK-3511,1 51752U 22016AQ  22222.25001157 -.00021232  00000-0 -13205-2 0  9997,2 51752  53.2176  58.4540 0001638  69.0276 287.5993 15.08822147 27437,6917.935,95.439,540.933,538.6669999999998,0.0
51752.0,STARLINK-3511,PAYLOAD,2022-08-10 14:00:01,15.08838223,0.0001751,53.2176,56.9424,65.1137,303.0452,-5.8134e-05,-1.213e-05,0.0,0 STARLINK-3511,1 51752U 22016AQ  22222.58334491 -.00001213  00000-0 -58134-4 0  9992,2 51752  53.2176  56.9424 0001751  65.1137 303.0452 15.08838223  1304,6917.886,95.438,540.962,538.539,0.0
51752.0,STARLINK-3511,PAYLOAD,2022-08-10 22:00:00,15.08807858,0.0001725,53.2174,55.4626,67.1732,312.5936,0.0017804,0.00028136,0.0,0 STARLINK-3511,1 51752U 22016AQ  22222.91667824  .00028136  00000-0  17804-2 0  9996,2 51752  53.2174  55.4626 0001725  67.1732 312.5936 15.08807858 27540,6917.979,95.44,541.0369999999998,538.65,0.0
51752.0,STARLINK-3511,PAYLOAD,2022-08-11 14:00:01,15.08840949,0.0001647,53.2171,52.4682,75.5832,327.3276,-0.00015263,-2.716e-05,0.0,0 STARLINK-3511,1 51752U 22016AQ  22223.58334491 -.00002716  00000-0 -15263-3 0  9997,2 51752  53.2171  52.4682 0001647  75.5832 327.3276 15.08840949  1308,6917.877,95.437,540.882,538.6030000000002,0.0
51752.0,STARLINK-3511,PAYLOAD,2022-08-11 22:00:00,15.08819914,0.0001728,53.217,50.9733,67.6082,346.9029,0.0022401,0.00035524,0.0,0 STARLINK-3511,1 51752U 22016AQ  22223.91667824  .00035524  00000-0  22401-2 0  9995,2 51752  53.2170  50.9733 0001728  67.6082 346.9029 15.08819914 27697,6917.941999999999,95.439,541.002,538.611,0.0
51752.0,STARLINK-3511,PAYLOAD,2022-08-12 14:00:01,15.0886709,0.0001665,53.217,47.9787,74.4004,3.3033,-0.00020552,-3.5600000000000005e-05,0.0,0 STARLINK-3511,1 51752U 22016AQ  22224.58334491 -.00003560  00000-0 -20552-3 0  9993,2 51752  53.2170  47.9787 0001665  74.4004   3.3033 15.08867090  1309,6917.7980000000025,95.436,540.814,538.511,0.0
51752.0,STARLINK-3511,PAYLOAD,2022-08-12 22:00:01,15.08849315,0.0001685,53.2171,46.4836,65.804,23.5872,-0.00029945,-5.052e-05,0.0,0 STARLINK-3511,1 51752U 22016AQ  22224.91668981 -.00005052  00000-0 -29945-3 0  9997,2 51752  53.2171  46.4836 0001685  65.8040  23.5872 15.08849315 27847,6917.852,95.437,540.883,538.5509999999998,0.0
51752.0,STARLINK-3511,PAYLOAD,2022-08-13 14:00:01,15.08836978,0.0001509,53.2174,43.4891,71.0755,41.4471,-0.0013072,-0.0002103,0.0,0 STARLINK-3511,1 51752U 22016AQ  22225.58334491 -.00021030  00000-0 -13072-2 0  9994,2 51752  53.2174  43.4891 0001509  71.0755  41.4471 15.08836978  1303,6917.89,95.438,540.799,538.711,0.0
51752.0,STARLINK-3511,PAYLOAD,2022-08-13 22:00:00,15.08800807,0.0001575,53.2176,41.9943,61.839,62.2715,0.0031635,0.00050365,0.0,0 STARLINK-3511,1 51752U 22016AQ  22225.91667824  .00050365  00000-0  31635-2 0  9996,2 51752  53.2176  41.9943 0001575  61.8390  62.2715 15.08800807  1305,6918.0,95.44,540.955,538.776,0.0
51752.0,STARLINK-3511,PAYLOAD,2022-08-14 14:00:01,15.08841581,0.0001584,53.2182,39.0,70.9149,76.3072,-0.00090358,-0.0001464,0.0,0 STARLINK-3511,1 51752U 22016AQ  22226.58334491 -.00014640  00000-0 -90358-3 0  9997,2 51752  53.2182  39.0000 0001584  70.9149  76.3072 15.08841581  1303,6917.876,95.437,540.836,538.645,0.0
51752.0,STARLINK-3511,PAYLOAD,2022-08-14 16:00:01,15.08840562,0.0001610999999999,53.2181,38.6265,68.1447,172.0382,-0.0011384,-0.0001836,0.0,0 STARLINK-3511,1 51752U 22016AQ  22226.66668981 -.00018360  00000-0 -11384-2 0  9994,2 51752  53.2181  38.6265 0001611  68.1447 172.0382 15.08840562 28104,6917.879,95.438,540.8580000000002,538.629,0.0
51752.0,STARLINK-3511,PAYLOAD,2022-08-14 22:00:00,15.08809453,0.0001649,53.2183,37.5052,62.3389,96.479,0.0034303,0.00054683,0.0,0 STARLINK-3511,1 51752U 22016AQ  22226.91667824  .00054683  00000-0  34303-2 0  9999,2 51752  53.2183  37.5052 0001649  62.3389  96.4790 15.08809453  1309,6917.974,95.439,540.98,538.698,0.0
51752.0,STARLINK-3511,PAYLOAD,2022-08-15 06:00:00,15.088325,0.0001520999999999,53.2186,36.0072,68.9416,101.4633,0.0011308,0.00017751,0.0,0 STARLINK-3511,1 51752U 22016AQ  22227.25001157  .00017751  00000-0  11308-2 0  9993,2 51752  53.2186  36.0072 0001521  68.9416 101.4633 15.08832500 28198,6917.903,95.438,540.821,538.716,0.0
51752.0,STARLINK-3511,PAYLOAD,2022-08-15 14:00:01,15.08861542,0.0001575999999999,53.2189,34.5112,70.3572,111.6344,-0.0011889,-0.00019171,0.0,0 STARLINK-3511,1 51752U 22016AQ  22227.58334491 -.00019171  00000-0 -11889-2 0  9993,2 51752  53.2189  34.5112 0001576  70.3572 111.6344 15.08861542  1303,6917.815,95.436,540.77,538.589,0.0
51752.0,STARLINK-3511,PAYLOAD,2022-08-15 22:00:00,15.08835124,0.0001583,53.2188,33.0162,61.4295,132.181,0.00048107,7.376e-05,0.0,0 STARLINK-3511,1 51752U 22016AQ  22227.91667824  .00007376  00000-0  48107-3 0  9995,2 51752  53.2188  33.0162 0001583  61.4295 132.1810 15.08835124  1305,6917.895,95.438,540.855,538.665,0.0
